NORAD_CAT_ID,OBJECT_NAME,OBJECT_TYPE,EPOCH,MEAN_MOTION,ECCENTRICITY,INCLINATION,RA_OF_ASC_NODE,ARG_OF_PERICENTER,MEAN_ANOMALY,BSTAR,MEAN_MOTION_DOT,MEAN_MOTION_DDOT,TLE_LINE0,TLE_LINE1,TLE_LINE2,SEMIMAJOR_AXIS,PERIOD,APOGEE,PERIGEE,DECAYED
52690.0,STARLINK-4035,PAYLOAD,2024-02-07 04:05:32,15.08845771,0.0001907,53.2187,322.7171,120.6659,239.4521,0.00010274,1.348e-05,0.0,0 STARLINK-4035,1 52690U 22053AL  24038.17051772  .00001348  00000-0  10274-3 0  9994,2 52690  53.2187 322.7171 0001907 120.6659 239.4521 15.08845771 95780,6917.863,95.437,541.047,538.409,0.0
52690.0,STARLINK-4035,PAYLOAD,2024-02-07 12:02:29,15.08831358,0.0001682,53.2201,321.2315,94.0167,266.1018,3.5595e-06,-2.31e-06,0.0,0 STARLINK-4035,1 52690U 22053AL  24038.50173183 -.00000231  00000-0  35595-5 0  9998,2 52690  53.2201 321.2315 0001682  94.0167 266.1018 15.08831358 95839,6917.907,95.438,540.935,538.608,0.0
52690.0,STARLINK-4035,PAYLOAD,2024-02-08 03:56:20,15.08843096,0.0001526,53.2184,318.2511,104.7248,255.3914,-1.5389e-05,-5.33e-06,0.0,0 STARLINK-4035,1 52690U 22053AL  24039.16412589 -.00000533  00000-0 -15389-4 0  9991,2 52690  53.2184 318.2511 0001526 104.7248 255.3914 15.08843096 95937,6917.871,95.437,540.792,538.68,0.0
52690.0,STARLINK-4035,PAYLOAD,2024-02-09 03:47:07,15.0885045,0.0001744,53.2177,313.7911,78.0274,282.0914,4.9811e-05,5.05e-06,0.0,0 STARLINK-4035,1 52690U 22053AL  24040.15772388  .00000505  00000-0  49811-4 0  9992,2 52690  53.2177 313.7911 0001744  78.0274 282.0914 15.08850450 96454,6917.848,95.437,540.92,538.507,0.0
52690.0,STARLINK-4035,PAYLOAD,2024-02-09 18:05:36,15.08831366,0.0001318,53.2177,311.1179,106.808,253.3056,0.00010828,1.435e-05,0.0,0 STARLINK-4035,1 52690U 22053AL  24040.75389767  .00001435  00000-0  10828-3 0  9991,2 52690  53.2177 311.1179 0001318 106.8080 253.3056 15.08831366 96176,6917.907,95.438,540.684,538.86,0.0
52690.0,STARLINK-4035,PAYLOAD,2024-02-10 03:37:54,15.0884589,0.0001454,53.217,309.3322,110.0189,250.096,0.00010971,1.459e-05,0.0,0 STARLINK-4035,1 52690U 22053AL  24041.15132587  .00001459  00000-0  10971-3 0  9997,2 52690  53.2170 309.3322 0001454 110.0189 250.0960 15.08845890 96238,6917.862,95.437,540.733,538.722,0.0
52690.0,STARLINK-4035,PAYLOAD,2024-02-10 22:42:32,15.08847658,0.0001361,53.2174,305.763,102.9412,257.1732,-1.0549e-05,-4.56e-06,0.0,0 STARLINK-4035,1 52690U 22053AL  24041.94620919 -.00000456  00000-0 -10549-4 0  9995,2 52690  53.2174 305.7630 0001361 102.9412 257.1732 15.08847658 96723,6917.857,95.437,540.664,538.78,0.0
52690.0,STARLINK-4035,PAYLOAD,2024-02-11 03:28:41,15.08850062,0.0001339,53.2181,304.8695,99.4695,260.6449,1.4648e-05,-5.5e-07,0.0,0 STARLINK-4035,1 52690U 22053AL  24042.14492532 -.00000055  00000-0  14648-4 0  9994,2 52690  53.2181 304.8695 0001339  99.4695 260.6449 15.08850062 96750,6917.85,95.437,540.641,538.788,0.0
52690.0,STARLINK-4035,PAYLOAD,2024-02-11 17:47:10,15.08842215,0.0001531,53.2179,302.1933,113.4729,246.6424,2.1274e-05,5.1e-07,0.0,0 STARLINK-4035,1 52690U 22053AL  24042.74109102  .00000051  00000-0  21274-4 0  9996,2 52690  53.2179 302.1933 0001531 113.4729 246.6424 15.08842215 96479,6917.874,95.437,540.798,538.679,0.0
52690.0,STARLINK-4035,PAYLOAD,2024-02-11 22:33:19,15.08845239,0.0001488,53.2169,301.3033,108.0187,252.0967,5.7918e-05,6.34e-06,0.0,0 STARLINK-4035,1 52690U 22053AL  24042.93980712  .00000634  00000-0  57918-4 0  9992,2 52690  53.2169 301.3033 0001488 108.0187 252.0967 15.08845239 96875,6917.864,95.437,540.759,538.7,0.0
52690.0,STARLINK-4035,PAYLOAD,2024-02-12 03:19:28,15.0884989,0.0001326,53.2172,300.4111,98.9506,261.1636,9.5225e-05,1.228e-05,0.0,0 STARLINK-4035,1 52690U 22053AL  24043.13852272  .00001228  00000-0  95225-4 0  9997,2 52690  53.2172 300.4111 0001326  98.9506 261.1636 15.08849890 96533,6917.85,95.437,540.632,538.798,0.0
52690.0,STARLINK-4035,PAYLOAD,2024-02-12 16:02:35,15.08822917,0.0001345,53.2177,298.0315,125.338,234.7738,-3.8445e-05,-8.99e-06,0.0,0 STARLINK-4035,1 52690U 22053AL  24043.66846630 -.00000899  00000-0 -38445-4 0  9992,2 52690  53.2177 298.0315 0001345 125.3380 234.7738 15.08822917 96611,6917.933,95.439,540.728,538.867,0.0
52690.0,STARLINK-4035,PAYLOAD,2024-02-12 22:24:07,15.08833551,0.0001626,53.2159,296.8475,109.9016,250.2152,-0.00016036,-2.839e-05,0.0,0 STARLINK-4035,1 52690U 22053AL  24043.93341438 -.00002839  00000-0 -16036-3 0  9995,2 52690  53.2159 296.8475 0001626 109.9016 250.2152 15.08833551 97025,6917.9,95.438,540.89,538.64,0.0
52690.0,STARLINK-4035,PAYLOAD,2024-02-12 23:59:30,15.08835649,0.0001673,53.2161,296.55,112.7951,247.3218,-0.00012461,-2.27e-05,0.0,0 STARLINK-4035,1 52690U 22053AL  24043.99965338 -.00002270  00000-0 -12461-3 0  9999,2 52690  53.2161 296.5500 0001673 112.7951 247.3218 15.08835649 96665,6917.894,95.438,540.916,538.601,0.0
52690.0,STARLINK-4035,PAYLOAD,2024-02-13 09:31:48,15.08841121,0.0001608,53.2165,294.7663,90.839,269.2786,-9.0809e-06,-4.33e-06,0.0,0 STARLINK-4035,1 52690U 22053AL  24044.39709328 -.00000433  00000-0 -90809-5 0  9992,2 52690  53.2165 294.7663 0001608  90.8390 269.2786 15.08841121 97093,6917.877,95.437,540.854,538.63,0.0
52690.0,STARLINK-4035,PAYLOAD,2024-02-13 22:14:53,15.08851203,0.0001848,53.2164,292.3879,102.0279,258.092,-0.00025709,-4.379e-05,0.0,0 STARLINK-4035,1 52690U 22053AL  24044.92701040 -.00004379  00000-0 -25709-3 0  9992,2 52690  53.2164 292.3879 0001848 102.0279 258.0920 15.08851203 97170,6917.846,95.437,540.99,538.433,0.0
52690.0,STARLINK-4035,PAYLOAD,2024-02-14 01:25:39,15.08851275,0.0001531,53.2158,291.7913,107.3847,252.7312,0.00023048,3.383e-05,0.0,0 STARLINK-4035,1 52690U 22053AL  24045.05949004  .00003383  00000-0  23048-3 0  9997,2 52690  53.2158 291.7913 0001531 107.3847 252.7312 15.08851275 96829,6917.846,95.437,540.77,538.652,0.0
52690.0,STARLINK-4035,PAYLOAD,2024-02-14 09:22:35,15.08842786,0.0001674,53.2172,290.3022,102.5921,257.5258,0.00015247,2.14e-05,0.0,0 STARLINK-4035,1 52690U 22053AL  24045.39069429  .00002140  00000-0  15247-3 0  9990,2 52690  53.2172 290.3022 0001674 102.5921 257.5258 15.08842786 96873,6917.872,95.437,540.895,538.579,0.0
52690.0,STARLINK-4035,PAYLOAD,2024-02-14 22:05:41,15.08837231,0.0001857,53.217,287.9254,82.3702,277.7501,7.3043e-05,8.74e-06,0.0,0 STARLINK-4035,1 52690U 22053AL  24045.92062122  .00000874  00000-0  73043-4 0  9993,2 52690  53.2170 287.9254 0001857  82.3702 277.7501 15.08837231 97320,6917.889,95.438,541.039,538.469,0.0
52690.0,STARLINK-4035,PAYLOAD,2024-02-14 23:41:04,15.08840407,0.0001683,53.2164,287.6278,83.3995,276.7189,0.00011406,1.528e-05,0.0,0 STARLINK-4035,1 52690U 22053AL  24045.98685904  .00001528  00000-0  11406-3 0  9999,2 52690  53.2164 287.6278 0001683  83.3995 276.7189 15.08840407 96967,6917.879,95.438,540.908,538.58,0.0
52690.0,STARLINK-4035,PAYLOAD,2024-02-15 21:56:28,15.08842386,0.0001414,53.2155,283.4646,98.4517,261.6635,2.2624e-05,7.2e-07,0.0,0 STARLINK-4035,1 52690U 22053AL  24046.91421869  .00000072  00000-0  22624-4 0  9999,2 52690  53.2155 283.4646 0001414  98.4517 261.6635 15.08842386 97473,6917.873,95.437,540.716,538.76,0.0
52690.0,STARLINK-4035,PAYLOAD,2024-02-16 09:04:10,15.08842525,0.0001353,53.2147,281.382,93.1544,266.9603,2.9291e-05,1.78e-06,0.0,0 STARLINK-4035,1 52690U 22053AL  24047.37789869  .00000178  00000-0  29291-4 0  9991,2 52690  53.2147 281.3820 0001353  93.1544 266.9603 15.08842525 97174,6917.873,95.437,540.674,538.802,0.0
52690.0,STARLINK-4035,PAYLOAD,2024-02-16 21:47:15,15.08847586,0.0001269,53.2144,279.0029,85.6891,274.4246,0.00013027,1.786e-05,0.0,0 STARLINK-4035,1 52690U 22053AL  24047.90781640  .00001786  00000-0  13027-3 0  9994,2 52690  53.2144 279.0029 0001269  85.6891 274.4246 15.08847586 97622,6917.857,95.437,540.6,538.844,0.0
52690.0,STARLINK-4035,PAYLOAD,2024-02-17 08:54:57,15.08845129,0.000141,53.2154,276.9183,93.0171,267.0982,0.00011716,1.577e-05,0.0,0 STARLINK-4035,1 52690U 22053AL  24048.37149647  .00001577  00000-0  11716-3 0  9992,2 52690  53.2154 276.9183 0001410  93.0171 267.0982 15.08845129 97695,6917.865,95.437,540.705,538.754,0.0
52690.0,STARLINK-4035,PAYLOAD,2024-02-17 20:02:39,15.08842757,0.000133,53.2152,274.8389,94.5872,265.5272,6.7772e-05,7.91e-06,0.0,0 STARLINK-4035,1 52690U 22053AL  24048.83517798  .00000791  00000-0  67772-4 0  9990,2 52690  53.2152 274.8389 0001330  94.5872 265.5272 15.08842757 97399,6917.872,95.437,540.657,538.817,0.0
52690.0,STARLINK-4035,PAYLOAD,2024-02-17 21:38:02,15.08842128,0.0001283,53.2147,274.543,89.8581,270.2558,8.3898e-05,1.048e-05,0.0,0 STARLINK-4035,1 52690U 22053AL  24048.90141857  .00001048  00000-0  83898-4 0  9990,2 52690  53.2147 274.5430 0001283  89.8581 270.2558 15.08842128 97772,6917.874,95.437,540.626,538.851,0.0
52690.0,STARLINK-4035,PAYLOAD,2024-02-18 00:48:48,15.08844573,0.0001286,53.2155,273.9479,90.5152,269.5988,9.9413e-05,1.295e-05,0.0,0 STARLINK-4035,1 52690U 22053AL  24049.03389703  .00001295  00000-0  99413-4 0  9993,2 52690  53.2155 273.9479 0001286  90.5152 269.5988 15.08844573 97799,6917.866,95.437,540.621,538.842,0.0
52690.0,STARLINK-4035,PAYLOAD,2024-02-18 19:53:26,15.08838857,0.0001199,53.2162,270.3779,96.5704,263.5424,4.0596e-05,3.58e-06,0.0,0 STARLINK-4035,1 52690U 22053AL  24049.82878067  .00000358  00000-0  40596-4 0  9993,2 52690  53.2162 270.3779 0001199  96.5704 263.5424 15.08838857 97543,6917.884,95.438,540.578,538.919,0.0
52690.0,STARLINK-4035,PAYLOAD,2024-02-18 21:28:49,15.08846279,0.0001207,53.216,270.0823,97.1,263.0129,-1.6785e-05,-5.55e-06,0.0,0 STARLINK-4035,1 52690U 22053AL  24049.89501786 -.00000555  00000-0 -16785-4 0  9995,2 52690  53.2160 270.0823 0001207  97.1000 263.0129 15.08846279 97920,6917.861,95.437,540.561,538.891,0.0
52690.0,STARLINK-4035,PAYLOAD,2024-02-19 07:01:08,15.08844125,0.0001216,53.2157,268.2977,96.4173,263.6958,-2.7568e-05,-7.27e-06,0.0,0 STARLINK-4035,1 52690U 22053AL  24050.29245855 -.00000727  00000-0 -27568-4 0  9995,2 52690  53.2157 268.2977 0001216  96.4173 263.6958 15.08844125 97988,6917.868,95.437,540.574,538.892,0.0
